CRE (WAAS/PRN 138)      
1 28868U 05036A   24171.58510410 -.00000053  00000+0  00000+0 0  9992
2 28868   2.4378  85.6182 0003909   1.1524 284.8680  1.00271468 39155
IOR-W (EGNOS/PRN 126)   
1 28899U 05044A   24171.61730770 -.00000242  00000+0  00000+0 0  9992
2 28899   4.1915  42.4578 0002192  52.5729 179.0168  1.00271976 68225
GSAT-8 (GAGAN/PRN 127)  
1 37605U 11022A   24171.52768933  .00000107  00000+0  00000+0 0  9991
2 37605   0.2450  91.6310 0002071 191.1203 230.5236  1.00272033 45920
LUCH 5A (SDCM/PRN 140)  
1 37951U 11074B   24171.62844428 -.00000032  00000+0  00000+0 0  9995
2 37951   6.8909  84.9407 0004303   9.8011 206.7060  1.00272725 45758
SES-5 (EGNOS/PRN 136)   
1 38652U 12036A   24171.22516623  .00000056  00000+0  00000+0 0  9997
2 38652   0.0471 308.8933 0002241 140.1957 264.8868  1.00269394 37183
GSAT-10 (GAGAN/PRN 128) 
1 38779U 12051B   24171.63670715 -.00000143  00000+0  00000+0 0  9990
2 38779   0.0422 132.1015 0000821 254.6716 193.8052  1.00272628 42810
LUCH 5B (SDCM/PRN 125)  
1 38977U 12061A   24171.44195006 -.00000122  00000+0  00000+0 0  9992
2 38977   8.8928  56.6898 0004148  86.5781 267.6770  1.00271478 42309
ASTRA 5B (EGNOS/PRN 123)
1 39617U 14011B   24171.52142370  .00000160  00000+0  00000+0 0  9997
2 39617   0.0686 309.5275 0002193 135.4073  34.5235  1.00273302 37377
LUCH 5V (SDCM/PRN 141)  
1 39727U 14023A   24171.63862725 -.00000249  00000+0  00000+0 0  9996
2 39727   3.3024  76.0271 0001883  55.2990 101.5997  1.00275825 37063
GSAT-15 (GAGAN/PRN 139) 
1 41028U 15065A   24171.59753362 -.00000236  00000+0  00000+0 0  9997
2 41028   0.0450 259.4518 0003856 178.1687 139.3248  1.00272317 31513
E 117 W B (WAAS/PRN 131)
1 41589U 16038B   24171.36774353  .00000011  00000+0  00000+0 0  9998
2 41589   0.0130 156.8153 0000349 155.6033 331.0445  1.00273261 29374
SES-15 (WAAS/PRN 133)   
1 42709U 17026A   24171.61972551  .00000083  00000+0  00000+0 0  9998
2 42709   0.0243  29.2224 0000561  50.3085 282.7502  1.00269519   141
QZS-2 (QZSS/PRN 194)    
1 42738U 17028A   24171.54424461 -.00000137  00000+0  00000+0 0  9997
2 42738  40.5682 253.7272 0758483 269.2561  82.2835  1.00283648   331
QZS-3 (QZSS/PRN 199)    
1 42917U 17048A   24171.56785562 -.00000325  00000+0  00000+0 0  9991
2 42917   0.0716 146.9357 0001664 297.1685 155.6706  1.00271493 24967
QZS-4 (QZSS/PRN 195)    
1 42965U 17062A   24170.83000410 -.00000327  00000+0  00000+0 0  9993
2 42965  40.5140 352.7666 0746143 271.5657  78.2941  1.00252564 24502
BEIDOU-3 G1 (PRN 130)   
1 43683U 18085A   24171.61320523 -.00000256  00000+0  00000+0 0  9995
2 43683   2.1971 109.4961 0004117 350.3027 169.3205  1.00273531 20762
BEIDOU-3 G2 (PRN 144)   
1 45344U 20017A   24171.46109503 -.00000121  00000+0  00000+0 0  9996
2 45344   2.3181  29.7271 0001638 102.4986  21.9765  1.00271342 15964
BEIDOU-3 G3 (PRN 143)   
1 45807U 20040A   24171.60374096 -.00000332  00000+0  00000+0 0  9997
2 45807   0.7810  42.6715 0004922 284.8948 268.6723  1.00270337 14773
GALAXY 30 (WAAS/PRN 135)
1 46114U 20056C   24171.62479810  .00000060  00000+0  00000+0 0  9995
2 46114   0.0121  45.3266 0002478  38.9168 284.0131  1.00270661 13998
QZS-1R (QZSS/PRN 196)   
1 49336U 21096A   24168.67895785 -.00000254  00000+0  00000+0 0  9999
2 49336  35.9435  90.5371 0756316 271.5165 281.9945  1.00259837  9682
